STARLINK-2576           
1 48400U 21038AZ  23262.75790788  .00007849  00000+0  54529-3 0  9991
2 48400  53.0545  70.5481 0001150  77.2499 282.8618 15.06396666131952
STARLINK-2571           
1 48401U 21038BA  23262.46303153 -.00001069  00000+0 -52897-4 0  9993
2 48401  53.0535  71.8824 0001643  75.5872 284.5300 15.06402626131906
STARLINK-2560           
1 48402U 21038BB  23262.75328237  .00000940  00000+0  82008-4 0  9998
2 48402  53.0551  70.5569 0001246  79.9576 280.1553 15.06402473131952
STARLINK-2561           
1 48403U 21038BC  23262.75051183 -.00008385  00000+0 -54414-3 0  9994
2 48403  53.0551  70.5823 0001603  87.3278 272.7895 15.06436415131954
STARLINK-2593           
1 48404U 21038BD  23262.74684972  .00019298  00000+0  13112-2 0  9994
2 48404  53.0550  70.5961 0001152  92.4324 267.6797 15.06391666131957
STARLINK-2570           
1 48405U 21038BE  23262.21240367  .00008313  00000+0  57605-3 0  9995
2 48405  53.0540  72.9938 0001652  71.9177 288.1992 15.06419145131879
STARLINK-2568           
1 48406U 21038BF  23262.73948013  .00001223  00000+0  10101-3 0  9999
2 48406  53.0547  70.6310 0001226  88.4327 271.6802 15.06397924131959
STARLINK-2595           
1 48407U 21038BG  23262.73579412  .00017614  00000+0  11985-2 0  9994
2 48407  53.0546  70.6476 0001275  94.7672 265.3462 15.06397148131948
STARLINK-2592           
1 48408U 21038BH  23262.73210574  .00017819  00000+0  12124-2 0  9999
2 48408  53.0544  70.6603 0001155  73.4111 286.7005 15.06391987131943
STARLINK-2596           
1 48409U 21038BJ  23262.75560042  .00002929  00000+0  21542-3 0  9991
2 48409  53.0547  75.5587 0001341 100.7129 259.4011 15.06404751131883
STARLINK-2563           
1 48410U 21038BK  23262.36211693 -.00006192  00000+0 -39708-3 0  9996
2 48410  53.0558  27.3211 0001669 115.8397 244.2764 15.06402651132529
STARLINK-2505           
1 48411U 21038BL  23262.77724911  .00036161  00000+0  24344-2 0  9990
2 48411  53.0552  20.4627 0001328  61.3945 298.7177 15.06395274132653
STARLINK-2581           
1 48412U 21038BM  23262.33131170  .00008236  00000+0  57135-3 0  9999
2 48412  53.0556  22.8991 0002291  67.9377 292.1855 15.06386798132572
STARLINK-2461           
1 48428U 21040A   23262.27274435  .00003666  00000+0  26483-3 0  9998
2 48428  53.0538 277.7262 0001510  93.6707 266.4455 15.06404124131828
STARLINK-2749           
1 48429U 21040B   23262.10965396  .00002334  00000+0  17554-3 0  9994
2 48429  53.0531 248.4678 0001506  89.7102 270.4060 15.06400252132217
STARLINK-2729           
1 48430U 21040C   23262.67264474  .00007045  00000+0  49113-3 0  9997
2 48430  53.0536 245.9330 0001505 100.9541 259.1618 15.06419641132308
STARLINK-2700           
1 48431U 21040D   23262.35428112  .00014424  00000+0  98491-3 0  9996
2 48431  53.0540 242.3601 0001432  81.0112 279.1039 15.06412655131494
STARLINK-2680           
1 48432U 21040E   23262.33547256  .00007704  00000+0  53562-3 0  9999
2 48432  53.0543 237.8380 0001607  92.9586 267.1587 15.06394278131711
STARLINK-2699           
1 48433U 21040F   23262.67961937  .00021344  00000+0  14465-2 0  9997
2 48433  53.0542 241.1773 0001444  87.4025 272.7129 15.06423845131695
STARLINK-2692           
1 48434U 21040G   23262.11339932  .00009169  00000+0  63344-3 0  9993
2 48434  53.0526 248.9526 0001337  84.9027 275.2114 15.06409960131384
STARLINK-2633           
1 48435U 21040H   23261.72170462  .00003735  00000+0  26947-3 0  9992
2 48435  53.0535 260.2093 0001211  94.7097 265.4030 15.06401712130731
STARLINK-2639           
1 48436U 21040J   23262.30822375  .00003607  00000+0  26091-3 0  9993
2 48436  53.0529 272.5664 0001417  83.4008 276.7142 15.06405739131069
STARLINK-2642           
1 48437U 21040K   23262.75698668  .00009931  00000+0  68460-3 0  9991
2 48437  53.0537 280.5540 0001967  93.3772 266.7442 15.06402642131825
STARLINK-2640           
1 48438U 21040L   23262.30454142  .00008553  00000+0  59224-3 0  9997
2 48438  53.0532 272.5816 0001493  93.0664 267.0496 15.06407569131892
STARLINK-2583           
1 48439U 21040M   23262.43354662  .00006125  00000+0  42972-3 0  9993
2 48439  53.0524 271.9986 0001600 104.2926 255.8241 15.06402464131916
STARLINK-2682           
1 48440U 21040N   23262.76159046  .00005184  00000+0  36650-3 0  9990
2 48440  53.0532 270.5281 0001535  91.8890 268.2274 15.06415970131132
STARLINK-2702           
1 48441U 21040P   23262.02809709  .00001561  00000+0  12368-3 0  9993
2 48441  53.0529 273.8206 0001664  88.6734 271.4446 15.06401070131858
STARLINK-2644           
1 48442U 21040Q   23262.75421881  .00008346  00000+0  57841-3 0  9998
2 48442  53.0538 270.5643 0001184  96.4909 263.6215 15.06406609131968
STARLINK-2663           
1 48443U 21040R   23262.35245180  .00004850  00000+0  34425-3 0  9990
2 48443  53.0529 272.3702 0001524  86.4618 273.6546 15.06403332131901
STARLINK-2645           
1 48444U 21040S   23262.41511301  .00002367  00000+0  17775-3 0  9999
2 48444  53.0525 272.0892 0001449  87.5582 272.5573 15.06403743131918
STARLINK-2634           
1 48445U 21040T   23262.41143706  .00003709  00000+0  26788-3 0  9995
2 48445  53.0537 272.1030 0001485  88.1603 271.9556 15.06385976131919
STARLINK-2247           
1 48446U 21040U   23262.73947630  .00016579  00000+0  11288-2 0  9996
2 48446  53.0528 270.6313 0001482  91.7469 268.3689 15.06416807131964
STARLINK-2269           
1 48447U 21040V   23262.07232949  .00000699  00000+0  65805-4 0  9996
2 48447  53.0542 273.6280 0001497  92.7462 267.3699 15.06392565131130
STARLINK-2632           
1 48448U 21040W   23262.42891947  .00007893  00000+0  54814-3 0  9995
2 48448  53.0526 272.0265 0001703  99.4345 260.6837 15.06404401131901
STARLINK-2655           
1 48449U 21040X   23262.73210278  .00000730  00000+0  67900-4 0  9996
2 48449  53.0558 270.6670 0001676  95.4697 264.6484 15.06408359131960
STARLINK-2660           
1 48450U 21040Y   23262.06495365  .00002979  00000+0  21877-3 0  9995
2 48450  53.0552 273.6608 0001839  98.9358 261.1839 15.06405617131862
STARLINK-2652           
1 48451U 21040Z   23262.06400937  .00003778  00000+0  27232-3 0  9996
2 48451  53.0544 273.6955 0002246 103.0802 257.0437 15.06414654131863
STARLINK-2703           
1 48452U 21040AA  23262.26030889  .00001027  00000+0  87827-4 0  9996
2 48452  53.0549 272.7537 0001511  94.0079 266.1083 15.06396637131895
STARLINK-2620           
1 48453U 21040AB  23262.32296969  .00004631  00000+0  32955-3 0  9992
2 48453  53.0534 272.4996 0001501  85.9793 274.1367 15.06407233131908
STARLINK-2654           
1 48454U 21040AC  23262.05389468  .00002156  00000+0  16355-3 0  9996
2 48454  53.0531 273.7077 0001351  86.4889 273.6254 15.06405175131862
STARLINK-2497           
1 48455U 21040AD  23262.05021104  .00002668  00000+0  19788-3 0  9998
2 48455  53.0532 273.7234 0001451  85.1382 274.9773 15.06408275131183
STARLINK-2508           
1 48456U 21040AE  23262.04652160  .00002186  00000+0  16557-3 0  9996
2 48456  53.0524 273.7424 0001841  93.2398 266.8802 15.06408251131183
STARLINK-2698           
1 48458U 21040AG  23262.32436612  .00000869  00000+0  77256-4 0  9991
2 48458  53.0541 277.5823 0001600  91.8331 268.2841 15.06399911131094
STARLINK-2579           
1 48459U 21040AH  23262.78144809  .00002561  00000+0  19070-3 0  9996
2 48459  53.0552 275.7931 0001675 109.0652 251.0518 15.06410672131221
STARLINK-2582           
1 48460U 21040AJ  23262.00367504 -.00001778  00000+0 -10050-3 0  9992
2 48460  53.0531 278.9354 0001426  87.5559 272.5593 15.06406546131006
STARLINK-2693           
1 48461U 21040AK  23262.74823593  .00008021  00000+0  55681-3 0  9994
2 48461  53.0530 275.5951 0001575  98.8354 261.2814 15.06395056131896
STARLINK-2683           
1 48462U 21040AL  23262.46583085  .00012437  00000+0  85213-3 0  9993
2 48462  53.0533 282.1403 0001483  88.9559 271.1600 15.06411093131108
STARLINK-2689           
1 48463U 21040AM  23262.27318663 -.00000744  00000+0 -31024-4 0  9993
2 48463  53.0538 282.7279 0001436  69.7443 290.3700 15.06397904131757
STARLINK-2686           
1 48464U 21040AN  23262.38470825  .00020786  00000+0  14103-2 0  9998
2 48464  53.0530 282.2259 0001357  88.5963 271.5181 15.06397815131778
STARLINK-2681           
1 48465U 21040AP  23261.93133764  .00004063  00000+0  29146-3 0  9991
2 48465  53.0529 284.2561 0001521  99.9659 260.1502 15.06408277131705
STARLINK-2687           
1 48466U 21040AQ  23262.77910022  .00005370  00000+0  37919-3 0  9994
2 48466  53.0535 280.4524 0001497  93.9919 266.1241 15.06393136131832
STARLINK-2659           
1 48467U 21040AR  23262.34047570  .00008495  00000+0  58832-3 0  9995
2 48467  53.0530 282.4241 0001287  92.9079 267.2057 15.06412801131769
STARLINK-2685           
1 48468U 21040AS  23262.32204559  .00002607  00000+0  19384-3 0  9994
2 48468  53.0535 282.5052 0001552  85.6815 274.4351 15.06405725131762
STARLINK-2661           
1 48469U 21040AT  23261.93871294  .00000156  00000+0  29352-4 0  9991
2 48469  53.0529 284.2266 0001464  97.8813 262.2343 15.06404105131708
STARLINK-2675           
1 48470U 21040AU  23262.33217740  .00004644  00000+0  33054-3 0  9997
2 48470  53.0534 282.4509 0001621 101.7455 258.3716 15.06393707131769
STARLINK-2684           
1 48471U 21040AV  23262.45842728  .00025891  00000+0  17504-2 0  9999
2 48471  53.0527 281.8904 0001371  82.8317 277.2828 15.06405952131784
STARLINK-2722           
1 48472U 21040AW  23262.43999465  .00018226  00000+0  12393-2 0  9994
2 48472  53.0526 281.9777 0001484  81.6840 278.4318 15.06399332130944
STARLINK-2658           
1 48473U 21040AX  23262.34416129  .00007404  00000+0  51529-3 0  9997
2 48473  53.0538 282.4030 0001394  94.9820 265.1328 15.06410416131763
STARLINK-2697           
1 48474U 21040AY  23262.37733193  .00001673  00000+0  13115-3 0  9995
2 48474  53.0537 282.2553 0001326 104.9848 255.1288 15.06406178131762
